[
	{
		"name": "Afeganistão",
		"dial_code": "+93",
		"code": "AF"
	},
    {
		"name": "África do Sul",
		"dial_code": "+27",
		"code": "ZA"
	},
	{
		"name": "Albânia",
		"dial_code": "+355",
		"code": "AL"
	},
	{
		"name": "Alemanha",
		"dial_code": "+49",
		"code": "DE"
	},
	{
		"name": "Andorra",
		"dial_code": "+376",
		"code": "AD"
	},
	{
		"name": "Angola",
		"dial_code": "+244",
		"code": "AO"
	},
	{
		"name": "Anguilla",
		"dial_code": "+1264",
		"code": "AI"
	},
	{
		"name": "Antilhas Holandesas",
		"dial_code": "+599",
		"code": "AN"
	},
	{
		"name": "Antártida",
		"dial_code": "+672",
		"code": "AQ"
	},
	{
		"name": "Antígua e Barbuda",
		"dial_code": "+1268",
		"code": "AG"
	},
	{
		"name": "Argentina",
		"dial_code": "+54",
		"code": "AR"
	},
	{
		"name": "Argélia",
		"dial_code": "+213",
		"code": "DZ"
	},
	{
		"name": "Armênia",
		"dial_code": "+374",
		"code": "AM"
	},
	{
		"name": "Aruba",
		"dial_code": "+297",
		"code": "AW"
	},
	{
		"name": "Arábia Saudita",
		"dial_code": "+966",
		"code": "SA"
	},
	{
		"name": "Australia",
		"dial_code": "+61",
		"code": "AU"
	},
	{
		"name": "Austrália",
		"dial_code": "+43",
		"code": "AT"
	},
	{
		"name": "Azerbaijão",
		"dial_code": "+994",
		"code": "AZ"
	},
	{
		"name": "Bahamas",
		"dial_code": "+1242",
		"code": "BS"
	},
	{
		"name": "Bahrain",
		"dial_code": "+973",
		"code": "BH"
	},
	{
		"name": "Bangladesh",
		"dial_code": "+880",
		"code": "BD"
	},
	{
		"name": "Barbados",
		"dial_code": "+1246",
		"code": "BB"
	},
	{
		"name": "Belize",
		"dial_code": "+501",
		"code": "BZ"
	},
	{
		"name": "Benim",
		"dial_code": "+229",
		"code": "BJ"
	},
	{
		"name": "Bermudas",
		"dial_code": "+1441",
		"code": "BM"
	},
	{
		"name": "Bielorrússia",
		"dial_code": "+375",
		"code": "BY"
	},
	{
		"name": "Bolívia",
		"dial_code": "+591",
		"code": "BO"
	},
	{
		"name": "Botswana",
		"dial_code": "+267",
		"code": "BW"
	},
	{
		"name": "Brasil",
		"dial_code": "+55",
		"code": "BR"
	},
	{
		"name": "Brunei",
		"dial_code": "+673",
		"code": "BN"
	},
	{
		"name": "Bulgária",
		"dial_code": "+359",
		"code": "BG"
	},
	{
		"name": "Burkina Faso",
		"dial_code": "+226",
		"code": "BF"
	},
	{
		"name": "Burundi",
		"dial_code": "+257",
		"code": "BI"
	},
	{
		"name": "Butão",
		"dial_code": "+975",
		"code": "BT"
	},
	{
		"name": "Bélgica",
		"dial_code": "+32",
		"code": "BE"
	},
	{
		"name": "Bósnia e Herzegovina",
		"dial_code": "+387",
		"code": "BA"
	},
	{
		"name": "Cabo Verde",
		"dial_code": "+238",
		"code": "CV"
	},
	{
		"name": "Camboja",
		"dial_code": "+855",
		"code": "KH"
	},
	{
		"name": "Cameroon",
		"dial_code": "+237",
		"code": "CM"
	},
	{
		"name": "Canadá",
		"dial_code": "+1",
		"code": "CA"
	},
	{
		"name": "Catar",
		"dial_code": "+974",
		"code": "QA"
	},
	{
		"name": "Cazaquistão",
		"dial_code": "+77",
		"code": "KZ"
	},
	{
		"name": "Chade",
		"dial_code": "+235",
		"code": "TD"
	},
	{
		"name": "Chile",
		"dial_code": "+56",
		"code": "CL"
	},
	{
		"name": "China",
		"dial_code": "+86",
		"code": "CN"
	},
	{
		"name": "Chipre",
		"dial_code": "+357",
		"code": "CY"
	},
	{
		"name": "Cidade do Vaticano",
		"dial_code": "+379",
		"code": "VA"
	},
	{
		"name": "Colômbia",
		"dial_code": "+57",
		"code": "CO"
	},
	{
		"name": "Comoros",
		"dial_code": "+269",
		"code": "KM"
	},
	{
		"name": "Congo",
		"dial_code": "+242",
		"code": "CG"
	},
	{
		"name": "Congo, República Democrática do Congo",
		"dial_code": "+243",
		"code": "CD"
	},
	{
		"name": "Coreia do Norte",
		"dial_code": "+850",
		"code": "KP"
	},
	{
		"name": "Coreia do Sul",
		"dial_code": "+82",
		"code": "KR"
	},
	{
		"name": "Costa Rica",
		"dial_code": "+506",
		"code": "CR"
	},
	{
		"name": "Costa do Marfim",
		"dial_code": "+225",
		"code": "CI"
	},
	{
		"name": "Croácia",
		"dial_code": "+385",
		"code": "HR"
	},
	{
		"name": "Cuba",
		"dial_code": "+53",
		"code": "CU"
	},
	{
		"name": "Dinamarca",
		"dial_code": "+45",
		"code": "DK"
	},
	{
		"name": "Djibouti",
		"dial_code": "+253",
		"code": "DJ"
	},
	{
		"name": "Dominica",
		"dial_code": "+1767",
		"code": "DM"
	},
	{
		"name": "Egito",
		"dial_code": "+20",
		"code": "EG"
	},
	{
		"name": "El Salvador",
		"dial_code": "+503",
		"code": "SV"
	},
	{
		"name": "Emirados Árabes Unidos",
		"dial_code": "+971",
		"code": "AE"
	},
	{
		"name": "Equador",
		"dial_code": "+593",
		"code": "EC"
	},
	{
		"name": "Eritreia",
		"dial_code": "+291",
		"code": "ER"
	},
	{
		"name": "Eslováquia",
		"dial_code": "+421",
		"code": "SK"
	},
	{
		"name": "Eslovênia",
		"dial_code": "+386",
		"code": "SI"
	},
	{
		"name": "Espanha",
		"dial_code": "+34",
		"code": "ES"
	},
	{
		"name": "Estados Unidos",
		"dial_code": "+1",
		"code": "US"
	},
	{
		"name": "Estónia",
		"dial_code": "+372",
		"code": "EE"
	},
	{
		"name": "Etiópia",
		"dial_code": "+251",
		"code": "ET"
	},
	{
		"name": "Fiji",
		"dial_code": "+679",
		"code": "FJ"
	},
	{
		"name": "Filipinas",
		"dial_code": "+63",
		"code": "PH"
	},
	{
		"name": "Finlândia",
		"dial_code": "+358",
		"code": "FI"
	},
	{
		"name": "França",
		"dial_code": "+33",
		"code": "FR"
	},
	{
		"name": "Gabão",
		"dial_code": "+241",
		"code": "GA"
	},
	{
		"name": "Gana",
		"dial_code": "+233",
		"code": "GH"
	},
	{
		"name": "Geórgia",
		"dial_code": "+995",
		"code": "GE"
	},
	{
		"name": "Gibraltar",
		"dial_code": "+350",
		"code": "GI"
	},
	{
		"name": "Granada",
		"dial_code": "+1473",
		"code": "GD"
	},
	{
		"name": "Groenlândia",
		"dial_code": "+299",
		"code": "GL"
	},
	{
		"name": "Grécia",
		"dial_code": "+30",
		"code": "GR"
	},
	{
		"name": "Guadelupe",
		"dial_code": "+590",
		"code": "GP"
	},
	{
		"name": "Guam",
		"dial_code": "+1671",
		"code": "GU"
	},
	{
		"name": "Guatemala",
		"dial_code": "+502",
		"code": "GT"
	},
	{
		"name": "Guernsey",
		"dial_code": "+44",
		"code": "GG"
	},
	{
		"name": "Guiana",
		"dial_code": "+595",
		"code": "GY"
	},
	{
		"name": "Guiana Francesa",
		"dial_code": "+594",
		"code": "GF"
	},
	{
		"name": "Guiné",
		"dial_code": "+224",
		"code": "GN"
	},
	{
		"name": "Guiné Equatorial",
		"dial_code": "+240",
		"code": "GQ"
	},
	{
		"name": "Guiné-Bissau",
		"dial_code": "+245",
		"code": "GW"
	},
	{
		"name": "Gâmbia",
		"dial_code": "+220",
		"code": "GM"
	},
	{
		"name": "Haiti",
		"dial_code": "+509",
		"code": "HT"
	},
	{
		"name": "Honduras",
		"dial_code": "+504",
		"code": "HN"
	},
	{
		"name": "Hong Kong",
		"dial_code": "+852",
		"code": "HK"
	},
	{
		"name": "Hungria",
		"dial_code": "+36",
		"code": "HU"
	},
	{
		"name": "Ilha Christmas",
		"dial_code": "+61",
		"code": "CX"
	},
	{
		"name": "Ilha Norfolk",
		"dial_code": "+672",
		"code": "NF"
	},
	{
		"name": "Ilha de Man",
		"dial_code": "+44",
		"code": "IM"
	},
	{
		"name": "Ilhas Cayman",
		"dial_code": "+ 345",
		"code": "KY"
	},
	{
		"name": "Ilhas Cocos (Keeling)",
		"dial_code": "+61",
		"code": "CC"
	},
	{
		"name": "Ilhas Cook",
		"dial_code": "+682",
		"code": "CK"
	},
	{
		"name": "Ilhas Faroé",
		"dial_code": "+298",
		"code": "FO"
	},
	{
		"name": "Ilhas Geórgia do Sul e Sandwich do Sul",
		"dial_code": "+500",
		"code": "GS"
	},
	{
		"name": "Ilhas Malvinas",
		"dial_code": "+500",
		"code": "FK"
	},
	{
		"name": "Ilhas Marianas do Norte",
		"dial_code": "+1670",
		"code": "MP"
	},
	{
		"name": "Ilhas Marshall",
		"dial_code": "+692",
		"code": "MH"
	},
	{
		"name": "Ilhas Pitcairn",
		"dial_code": "+872",
		"code": "PN"
	},
	{
		"name": "Ilhas Salomão",
		"dial_code": "+677",
		"code": "SB"
	},
	{
		"name": "Ilhas Virgens Americanas",
		"dial_code": "+1340",
		"code": "VI"
	},
	{
		"name": "Ilhas Virgens Britânicas",
		"dial_code": "+1284",
		"code": "VG"
	},
	{
		"name": "Ilhas de Aland",
		"dial_code": "+358",
		"code": "AX"
	},
	{
		"name": "Índia",
		"dial_code": "+91",
		"code": "IN"
	},
	{
		"name": "Indonésia",
		"dial_code": "+62",
		"code": "ID"
	},
	{
		"name": "Iraq",
		"dial_code": "+964",
		"code": "IQ"
	},
	{
		"name": "Irlanda",
		"dial_code": "+353",
		"code": "IE"
	},
	{
		"name": "Irã",
		"dial_code": "+98",
		"code": "IR"
	},
	{
		"name": "Islândia",
		"dial_code": "+354",
		"code": "IS"
	},
	{
		"name": "Israel",
		"dial_code": "+972",
		"code": "IL"
	},
	{
		"name": "Itália",
		"dial_code": "+39",
		"code": "IT"
	},
	{
		"name": "Iêmen",
		"dial_code": "+967",
		"code": "YE"
	},
	{
		"name": "Jamaica",
		"dial_code": "+1876",
		"code": "JM"
	},
	{
		"name": "Japão",
		"dial_code": "+81",
		"code": "JP"
	},
	{
		"name": "Jersey",
		"dial_code": "+44",
		"code": "JE"
	},
	{
		"name": "Jordan",
		"dial_code": "+962",
		"code": "JO"
	},
	{
		"name": "Kiribati",
		"dial_code": "+686",
		"code": "KI"
	},
	{
		"name": "Kuwait",
		"dial_code": "+965",
		"code": "KW"
	},
	{
		"name": "Laos",
		"dial_code": "+856",
		"code": "LA"
	},
	{
		"name": "Lesoto",
		"dial_code": "+266",
		"code": "LS"
	},
	{
		"name": "Letónia",
		"dial_code": "+371",
		"code": "LV"
	},
	{
		"name": "Liberia",
		"dial_code": "+231",
		"code": "LR"
	},
	{
		"name": "Liechtenstein",
		"dial_code": "+423",
		"code": "LI"
	},
	{
		"name": "Lituânia",
		"dial_code": "+370",
		"code": "LT"
	},
	{
		"name": "Luxemburgo",
		"dial_code": "+352",
		"code": "LU"
	},
	{
		"name": "Líbano",
		"dial_code": "+961",
		"code": "LB"
	},
	{
		"name": "Líbia",
		"dial_code": "+218",
		"code": "LY"
	},
	{
		"name": "Macau",
		"dial_code": "+853",
		"code": "MO"
	},
	{
		"name": "Macedónia do Norte",
		"dial_code": "+389",
		"code": "MK"
	},
	{
		"name": "Madagáscar",
		"dial_code": "+261",
		"code": "MG"
	},
	{
		"name": "Malawi",
		"dial_code": "+265",
		"code": "MW"
	},
	{
		"name": "Maldivas",
		"dial_code": "+960",
		"code": "MV"
	},
	{
		"name": "Mali",
		"dial_code": "+223",
		"code": "ML"
	},
	{
		"name": "Malta",
		"dial_code": "+356",
		"code": "MT"
	},
	{
		"name": "Malásia",
		"dial_code": "+60",
		"code": "MY"
	},
	{
		"name": "Marrocos",
		"dial_code": "+212",
		"code": "MA"
	},
	{
		"name": "Martinica",
		"dial_code": "+596",
		"code": "MQ"
	},
	{
		"name": "Mauritânia",
		"dial_code": "+222",
		"code": "MR"
	},
	{
		"name": "Maurícia",
		"dial_code": "+230",
		"code": "MU"
	},
	{
		"name": "Mayotte",
		"dial_code": "+262",
		"code": "YT"
	},
	{
		"name": "Micronésia",
		"dial_code": "+691",
		"code": "FM"
	},
	{
		"name": "Moldávia",
		"dial_code": "+373",
		"code": "MD"
	},
	{
		"name": "Mongólia",
		"dial_code": "+976",
		"code": "MN"
	},
	{
		"name": "Montenegro",
		"dial_code": "+382",
		"code": "ME"
	},
	{
		"name": "Montserrat",
		"dial_code": "+1664",
		"code": "MS"
	},
	{
		"name": "Moçambique",
		"dial_code": "+258",
		"code": "MZ"
	},
	{
		"name": "Myanmar",
		"dial_code": "+95",
		"code": "MM"
	},
	{
		"name": "México",
		"dial_code": "+52",
		"code": "MX"
	},
	{
		"name": "Mónaco",
		"dial_code": "+377",
		"code": "MC"
	},
	{
		"name": "Namíbia",
		"dial_code": "+264",
		"code": "NA"
	},
	{
		"name": "Nauru",
		"dial_code": "+674",
		"code": "NR"
	},
	{
		"name": "Nepal",
		"dial_code": "+977",
		"code": "NP"
	},
	{
		"name": "Nicarágua",
		"dial_code": "+505",
		"code": "NI"
	},
	{
		"name": "Nigéria",
		"dial_code": "+234",
		"code": "NG"
	},
	{
		"name": "Niue",
		"dial_code": "+683",
		"code": "NU"
	},
	{
		"name": "Noruega",
		"dial_code": "+47",
		"code": "NO"
	},
	{
		"name": "Nova Caledônia",
		"dial_code": "+687",
		"code": "NC"
	},
	{
		"name": "Nova Zelândia",
		"dial_code": "+64",
		"code": "NZ"
	},
	{
		"name": "Níger",
		"dial_code": "+227",
		"code": "NE"
	},
	{
		"name": "Omã",
		"dial_code": "+968",
		"code": "OM"
	},
	{
		"name": "Palau",
		"dial_code": "+680",
		"code": "PW"
	},
	{
		"name": "Palestina",
		"dial_code": "+970",
		"code": "PS"
	},
	{
		"name": "Panamá",
		"dial_code": "+507",
		"code": "PA"
	},
	{
		"name": "Papua-Nova Guiné",
		"dial_code": "+675",
		"code": "PG"
	},
	{
		"name": "Paquistão",
		"dial_code": "+92",
		"code": "PK"
	},
	{
		"name": "Paraguai",
		"dial_code": "+595",
		"code": "PY"
	},
	{
		"name": "Países Baixos",
		"dial_code": "+31",
		"code": "NL"
	},
	{
		"name": "Peru",
		"dial_code": "+51",
		"code": "PE"
	},
	{
		"name": "Polinésia Francesa",
		"dial_code": "+689",
		"code": "PF"
	},
	{
		"name": "Polônia",
		"dial_code": "+48",
		"code": "PL"
	},
	{
		"name": "Porto Rico",
		"dial_code": "+1939",
		"code": "PR"
	},
	{
		"name": "Portugal",
		"dial_code": "+351",
		"code": "PT"
	},
	{
		"name": "Quirguistão",
		"dial_code": "+996",
		"code": "KG"
	},
	{
		"name": "Quénia",
		"dial_code": "+254",
		"code": "KE"
	},
	{
		"name": "Reino Unido",
		"dial_code": "+44",
		"code": "GB"
	},
	{
		"name": "República Centro-Africana",
		"dial_code": "+236",
		"code": "CF"
	},
	{
		"name": "República Checa",
		"dial_code": "+420",
		"code": "CZ"
	},
	{
		"name": "República Dominicana",
		"dial_code": "+1849",
		"code": "DO"
	},
	{
		"name": "Reunião",
		"dial_code": "+262",
		"code": "RE"
	},
	{
		"name": "Romênia",
		"dial_code": "+40",
		"code": "RO"
	},
	{
		"name": "Ruanda",
		"dial_code": "+250",
		"code": "RW"
	},
	{
		"name": "Rússia",
		"dial_code": "+7",
		"code": "RU"
	},
	{
		"name": "Saint-Pierre e Miquelon",
		"dial_code": "+508",
		"code": "PM"
	},
	{
		"name": "Samoa",
		"dial_code": "+685",
		"code": "WS"
	},
	{
		"name": "Samoa Americana",
		"dial_code": "+1684",
		"code": "AS"
	},
	{
		"name": "San Marino",
		"dial_code": "+378",
		"code": "SM"
	},
	{
		"name": "Santa Helena",
		"dial_code": "+290",
		"code": "SH"
	},
	{
		"name": "Santa Lúcia",
		"dial_code": "+1758",
		"code": "LC"
	},
	{
		"name": "Senegal",
		"dial_code": "+221",
		"code": "SN"
	},
	{
		"name": "Serra Leoa",
		"dial_code": "+232",
		"code": "SL"
	},
	{
		"name": "Seychelles",
		"dial_code": "+248",
		"code": "SC"
	},
	{
		"name": "Singapura",
		"dial_code": "+65",
		"code": "SG"
	},
	{
		"name": "Somália",
		"dial_code": "+252",
		"code": "SO"
	},
	{
		"name": "Sri Lanka",
		"dial_code": "+94",
		"code": "LK"
	},
	{
		"name": "Suazilândia",
		"dial_code": "+268",
		"code": "SZ"
	},
	{
		"name": "Sudão",
		"dial_code": "+249",
		"code": "SD"
	},
	{
		"name": "Sudão do Sul",
		"dial_code": "+211",
		"code": "SS"
	},
	{
		"name": "Suriname",
		"dial_code": "+597",
		"code": "SR"
	},
	{
		"name": "Suécia",
		"dial_code": "+46",
		"code": "SE"
	},
	{
		"name": "Suíça",
		"dial_code": "+41",
		"code": "CH"
	},
	{
		"name": "Svalbard and Jan Mayen",
		"dial_code": "+47",
		"code": "SJ"
	},
	{
		"name": "São Bartolomeu",
		"dial_code": "+590",
		"code": "BL"
	},
	{
		"name": "São Cristóvão e Nevis",
		"dial_code": "+1869",
		"code": "KN"
	},
	{
		"name": "São Martinho (Parte Francesa)",
		"dial_code": "+590",
		"code": "MF"
	},
	{
		"name": "São Tomé e Príncipe",
		"dial_code": "+239",
		"code": "ST"
	},
	{
		"name": "São Vicente e Granadinas",
		"dial_code": "+1784",
		"code": "VC"
	},
	{
		"name": "Sérvia",
		"dial_code": "+381",
		"code": "RS"
	},
	{
		"name": "Síria",
		"dial_code": "+963",
		"code": "SY"
	},
	{
		"name": "Tailândia",
		"dial_code": "+66",
		"code": "TH"
	},
	{
		"name": "Taiwan",
		"dial_code": "+886",
		"code": "TW"
	},
	{
		"name": "Tajiquistão",
		"dial_code": "+992",
		"code": "TJ"
	},
	{
		"name": "Tanzânia",
		"dial_code": "+255",
		"code": "TZ"
	},
	{
		"name": "Território do Oceano Índico Britânico",
		"dial_code": "+246",
		"code": "IO"
	},
	{
		"name": "Timor-Leste",
		"dial_code": "+670",
		"code": "TL"
	},
	{
		"name": "Togo",
		"dial_code": "+228",
		"code": "TG"
	},
	{
		"name": "Tokelau",
		"dial_code": "+690",
		"code": "TK"
	},
	{
		"name": "Tonga",
		"dial_code": "+676",
		"code": "TO"
	},
	{
		"name": "Trindade e Tobago",
		"dial_code": "+1868",
		"code": "TT"
	},
	{
		"name": "Tunísia",
		"dial_code": "+216",
		"code": "TN"
	},
	{
		"name": "Turcomenistão",
		"dial_code": "+993",
		"code": "TM"
	},
	{
		"name": "Turks e Caicos",
		"dial_code": "+1649",
		"code": "TC"
	},
	{
		"name": "Turquia",
		"dial_code": "+90",
		"code": "TR"
	},
	{
		"name": "Tuvalu",
		"dial_code": "+688",
		"code": "TV"
	},
	{
		"name": "Ucrânia",
		"dial_code": "+380",
		"code": "UA"
	},
	{
		"name": "Uganda",
		"dial_code": "+256",
		"code": "UG"
	},
	{
		"name": "Uruguai",
		"dial_code": "+598",
		"code": "UY"
	},
	{
		"name": "Uzbequistão",
		"dial_code": "+998",
		"code": "UZ"
	},
	{
		"name": "Vanuatu",
		"dial_code": "+678",
		"code": "VU"
	},
	{
		"name": "Venezuela",
		"dial_code": "+58",
		"code": "VE"
	},
	{
		"name": "Vietnã",
		"dial_code": "+84",
		"code": "VN"
	},
	{
		"name": "Wallis e Futuna",
		"dial_code": "+681",
		"code": "WF"
	},
	{
		"name": "Zimbábue",
		"dial_code": "+263",
		"code": "ZW"
	},
	{
		"name": "Zâmbia",
		"dial_code": "+260",
		"code": "ZM"
	}
]